[{"OBJECT_NAME":"IRIDE-MS2-HEO-2","OBJECT_ID":"2025-135AT","EPOCH":"2026-03-09T23:13:33.567168","MEAN_MOTION":14.93221421,"ECCENTRICITY":0.00012181,"INCLINATION":97.762,"RA_OF_ASC_NODE":184.4292,"ARG_OF_PERICENTER":14.7881,"MEAN_ANOMALY":345.3374,"EPHEMERIS_TYPE":0,"CLASSIFICATION_TYPE":"U","NORAD_CAT_ID":64569,"ELEMENT_SET_NO":999,"REV_AT_EPOCH":3907,"BSTAR":0.00029353883,"MEAN_MOTION_DOT":3.012e-5,"MEAN_MOTION_DDOT":0},{"OBJECT_NAME":"LANDSAT 5","OBJECT_ID":"1984-021A","EPOCH":"2026-03-09T17:06:39.595392","MEAN_MOTION":15.03956175,"ECCENTRICITY":0.00705197,"INCLINATION":98.0698,"RA_OF_ASC_NODE":343.5816,"ARG_OF_PERICENTER":90.3041,"MEAN_ANOMALY":270.6265,"EPHEMERIS_TYPE":0,"CLASSIFICATION_TYPE":"U","NORAD_CAT_ID":14780,"ELEMENT_SET_NO":999,"REV_AT_EPOCH":77643,"BSTAR":0.00029889959,"MEAN_MOTION_DOT":4.286e-5,"MEAN_MOTION_DDOT":0}]
